[{"OBJECT_NAME":"ONEWEB-0519","OBJECT_ID":"2022-138AA","EPOCH":"2026-03-09T18:36:08.004096","MEAN_MOTION":13.19725885,"ECCENTRICITY":0.00014682,"INCLINATION":87.9235,"RA_OF_ASC_NODE":324.7649,"ARG_OF_PERICENTER":79.5494,"MEAN_ANOMALY":280.5804,"EPHEMERIS_TYPE":0,"CLASSIFICATION_TYPE":"U","NORAD_CAT_ID":54137,"ELEMENT_SET_NO":999,"REV_AT_EPOCH":16372,"BSTAR":-0.00024916148,"MEAN_MOTION_DOT":-8.7e-7,"MEAN_MOTION_DDOT":0},{"OBJECT_NAME":"NOAA 16 DEB","OBJECT_ID":"2000-055AF","EPOCH":"2026-03-09T22:40:03.781344","MEAN_MOTION":13.54721127,"ECCENTRICITY":0.02836476,"INCLINATION":98.841,"RA_OF_ASC_NODE":146.2091,"ARG_OF_PERICENTER":13.4372,"MEAN_ANOMALY":347.4124,"EPHEMERIS_TYPE":0,"CLASSIFICATION_TYPE":"U","NORAD_CAT_ID":41072,"ELEMENT_SET_NO":999,"REV_AT_EPOCH":50795,"BSTAR":0.00033894634,"MEAN_MOTION_DOT":2.63e-6,"MEAN_MOTION_DDOT":0}]
